{
  "norad_id": 38764,
  "name": "CINEMA",
  "history": [
    {
      "epoch": "2026-03-28T21:45:12.652416Z",
      "apogee_km": 478.9664263849527,
      "perigee_km": 395.6145659580752,
      "latitude_deg": 5.976662662317984e-05,
      "longitude_deg": -154.7321112634729,
      "height_km": 478.73253442366286,
      "semi_major_axis_km": 6815.427496171514,
      "eccentricity": 0.00611494,
      "inclination_deg": 64.6468,
      "raan_deg": 357.8907,
      "arg_perigee_deg": 199.0419,
      "mean_anomaly_deg": 160.8433,
      "mean_motion_rev_day": 15.42989991
    },
    {
      "epoch": "2026-03-29T03:58:31.873152Z",
      "apogee_km": 478.8638286544365,
      "perigee_km": 395.55846518500675,
      "latitude_deg": 5.210598891131162e-06,
      "longitude_deg": 110.80534797963057,
      "height_km": 478.6585815605309,
      "semi_major_axis_km": 6815.348146919721,
      "eccentricity": 0.0061116,
      "inclination_deg": 64.6469,
      "raan_deg": 357.0138,
      "arg_perigee_deg": 198.927,
      "mean_anomaly_deg": 160.9596,
      "mean_motion_rev_day": 15.43016938
    },
    {
      "epoch": "2026-03-30T01:45:06.562368Z",
      "apogee_km": 478.4895190478619,
      "perigee_km": 395.4802441107249,
      "latitude_deg": 2.1855960531989474e-05,
      "longitude_deg": 140.19759696367942,
      "height_km": 478.3487080870834,
      "semi_major_axis_km": 6815.121881579293,
      "eccentricity": 0.00609008,
      "inclination_deg": 64.6469,
      "raan_deg": 353.9449,
      "arg_perigee_deg": 198.6874,
      "mean_anomaly_deg": 161.2028,
      "mean_motion_rev_day": 15.43093782
    },
    {
      "epoch": "2026-03-30T11:05:03.128064Z",
      "apogee_km": 478.3548650712992,
      "perigee_km": 395.42972491043565,
      "latitude_deg": 4.032780072639132e-05,
      "longitude_deg": -1.4866514841817915,
      "height_km": 478.2394912383393,
      "semi_major_axis_km": 6815.029294990867,
      "eccentricity": 0.00608399,
      "inclination_deg": 64.6469,
      "raan_deg": 352.6296,
      "arg_perigee_deg": 198.5878,
      "mean_anomaly_deg": 161.3038,
      "mean_motion_rev_day": 15.43125228
    }
  ]
}